[{"OBJECT_NAME":"TRANSPORTER-15 OBJECT CX","OBJECT_ID":"2025-276CX","EPOCH":"2026-03-09T18:16:24.883104","MEAN_MOTION":15.19627935,"ECCENTRICITY":1.891e-5,"INCLINATION":97.4237,"RA_OF_ASC_NODE":144.0993,"ARG_OF_PERICENTER":69.686,"MEAN_ANOMALY":290.4395,"EPHEMERIS_TYPE":0,"CLASSIFICATION_TYPE":"U","NORAD_CAT_ID":66759,"ELEMENT_SET_NO":999,"REV_AT_EPOCH":1533,"BSTAR":0.00041936127,"MEAN_MOTION_DOT":8.872e-5,"MEAN_MOTION_DDOT":0},{"OBJECT_NAME":"COSMOS 2251 DEB","OBJECT_ID":"1993-036AWN","EPOCH":"2026-03-09T06:26:08.321568","MEAN_MOTION":15.11257706,"ECCENTRICITY":0.00842289,"INCLINATION":74.0116,"RA_OF_ASC_NODE":284.5024,"ARG_OF_PERICENTER":350.308,"MEAN_ANOMALY":9.6482,"EPHEMERIS_TYPE":0,"CLASSIFICATION_TYPE":"U","NORAD_CAT_ID":35996,"ELEMENT_SET_NO":999,"REV_AT_EPOCH":73632,"BSTAR":0.00055219842,"MEAN_MOTION_DOT":0.00010085,"MEAN_MOTION_DDOT":0}]
